NORAD_CAT_ID,OBJECT_NAME,OBJECT_TYPE,EPOCH,MEAN_MOTION,ECCENTRICITY,INCLINATION,RA_OF_ASC_NODE,ARG_OF_PERICENTER,MEAN_ANOMALY,BSTAR,MEAN_MOTION_DOT,MEAN_MOTION_DDOT,TLE_LINE0,TLE_LINE1,TLE_LINE2,SEMIMAJOR_AXIS,PERIOD,APOGEE,PERIGEE,DECAYED
53743.0,STARLINK-4645,PAYLOAD,2023-12-08 06:18:25,15.08842197,0.000159,53.218,356.2292,90.7693,269.3482,0.00019038,2.743e-05,0.0,0 STARLINK-4645,1 53743U 22107AV  23342.26279036  .00002743  00000-0  19038-3 0  9993,2 53743  53.2180 356.2292 0001590  90.7693 269.3482 15.08842197 70434,6917.874,95.437,540.839,538.639,0.0
53743.0,STARLINK-4645,PAYLOAD,2023-12-09 06:09:12,15.08840299,0.0001663,53.2177,351.7696,90.5463,269.572,0.0001335,1.837e-05,0.0,0 STARLINK-4645,1 53743U 22107AV  23343.25639205  .00001837  00000-0  13350-3 0  9995,2 53743  53.2177 351.7696 0001663  90.5463 269.5720 15.08840299 69809,6917.879,95.438,540.895,538.594,0.0
53743.0,STARLINK-4645,PAYLOAD,2023-12-10 01:13:50,15.08836397,0.0001696,53.2176,348.205,90.8108,269.3079,3.969e-05,3.44e-06,0.0,0 STARLINK-4645,1 53743U 22107AV  23344.05127527  .00000344  00000-0  39690-4 0  9991,2 53743  53.2176 348.2050 0001696  90.8108 269.3079 15.08836397 69920,6917.891,95.438,540.93,538.583,0.0
53743.0,STARLINK-4645,PAYLOAD,2023-12-11 04:15:23,15.08837578,0.0001683,53.2173,343.1504,91.8797,268.2388,5.9197e-05,6.54e-06,0.0,0 STARLINK-4645,1 53743U 22107AV  23345.17735710  .00000654  00000-0  59197-4 0  9992,2 53743  53.2173 343.1504 0001683  91.8797 268.2388 15.08837578 70099,6917.888,95.438,540.917,538.589,0.0
53743.0,STARLINK-4645,PAYLOAD,2023-12-11 07:26:10,15.08839109,0.0001614,53.2177,342.5553,73.4339,286.6831,0.00010347,1.359e-05,0.0,0 STARLINK-4645,1 53743U 22107AV  23345.30983989  .00001359  00000-0  10347-3 0  9996,2 53743  53.2177 342.5553 0001614  73.4339 286.6831 15.08839109 70899,6917.883,95.438,540.865,538.632,0.0
53743.0,STARLINK-4645,PAYLOAD,2023-12-12 07:16:56,15.08845836,0.0001729,53.2186,338.0925,76.0482,284.0703,0.00017826,2.551e-05,0.0,0 STARLINK-4645,1 53743U 22107AV  23346.30343566  .00002551  00000-0  17826-3 0  9992,2 53743  53.2186 338.0925 0001729  76.0482 284.0703 15.08845836 70262,6917.863,95.437,540.924,538.531,0.0
53743.0,STARLINK-4645,PAYLOAD,2023-12-13 03:56:57,15.08841257,0.0001859,53.218,334.2255,73.7981,286.3215,8.1691e-05,1.012e-05,0.0,0 STARLINK-4645,1 53743U 22107AV  23347.16455873  .00001012  00000-0  81691-4 0  9995,2 53743  53.2180 334.2255 0001859  73.7981 286.3215 15.08841257 70392,6917.877,95.437,541.028,538.456,0.0
53743.0,STARLINK-4645,PAYLOAD,2023-12-13 05:32:21,15.08839013,0.0001726,53.2179,333.9311,79.4865,280.6321,3.7976e-05,3.16e-06,0.0,0 STARLINK-4645,1 53743U 22107AV  23347.23079909  .00000316  00000-0  37976-4 0  9998,2 53743  53.2179 333.9311 0001726  79.4865 280.6321 15.08839013 71186,6917.883,95.438,540.942,538.554,0.0
53743.0,STARLINK-4645,PAYLOAD,2023-12-14 05:23:07,15.08845142,0.00018,53.2182,329.4708,80.0778,280.0418,0.00012353,1.679e-05,0.0,0 STARLINK-4645,1 53743U 22107AV  23348.22439665  .00001679  00000-0  12353-3 0  9991,2 53743  53.2182 329.4708 0001800  80.0778 280.0418 15.08845142 70555,6917.865,95.437,540.975,538.484,0.0
53743.0,STARLINK-4645,PAYLOAD,2023-12-15 05:13:54,15.08844223,0.0001633,53.2177,325.0076,93.5587,266.5592,0.00013491,1.86e-05,0.0,0 STARLINK-4645,1 53743U 22107AV  23349.21799483  .00001860  00000-0  13491-3 0  9994,2 53743  53.2177 325.0076 0001633  93.5587 266.5592 15.08844223 71484,6917.867,95.437,540.862,538.603,0.0
53743.0,STARLINK-4645,PAYLOAD,2023-12-16 03:29:18,15.08838364,0.000144,53.217,320.8412,92.4462,267.6695,5.221e-05,5.43e-06,0.0,0 STARLINK-4645,1 53743U 22107AV  23350.14535844  .00000543  00000-0  52210-4 0  9997,2 53743  53.2170 320.8412 0001440  92.4462 267.6695 15.08838364 70844,6917.885,95.438,540.747,538.754,0.0
53743.0,STARLINK-4645,PAYLOAD,2023-12-16 05:04:42,15.08840495,0.0001482,53.2172,320.5416,96.6656,263.4505,8.8842e-05,1.126e-05,0.0,0 STARLINK-4645,1 53743U 22107AV  23350.21159734  .00001126  00000-0  88842-4 0  9993,2 53743  53.2172 320.5416 0001482  96.6656 263.4505 15.08840495 71634,6917.879,95.438,540.769,538.719,0.0
53743.0,STARLINK-4645,PAYLOAD,2023-12-17 04:55:29,15.08842462,0.0001392,53.217,316.0823,96.5218,263.5933,6.3486e-05,7.23e-06,0.0,0 STARLINK-4645,1 53743U 22107AV  23351.20519800  .00000723  00000-0  63486-4 0  9996,2 53743  53.2170 316.0823 0001392  96.5218 263.5933 15.08842462 71000,6917.873,95.437,540.701,538.775,0.0
53743.0,STARLINK-4645,PAYLOAD,2023-12-18 03:10:52,15.08860209,0.0001388,53.2165,311.9231,97.0233,263.0917,0.00044427,6.794e-05,0.0,0 STARLINK-4645,1 53743U 22107AV  23352.13255062  .00006794  00000-0  44427-3 0  9993,2 53743  53.2165 311.9231 0001388  97.0233 263.0917 15.08860209 71140,6917.819,95.436,540.644,538.723,0.0
53743.0,STARLINK-4645,PAYLOAD,2023-12-19 03:01:40,15.08835063,0.0001313,53.2167,307.4609,93.4017,266.7126,-4.3587e-05,-9.81e-06,0.0,0 STARLINK-4645,1 53743U 22107AV  23353.12616074 -.00000981  00000-0 -43587-4 0  9998,2 53743  53.2167 307.4609 0001313  93.4017 266.7126 15.08835063 71297,6917.895,95.438,540.669,538.852,0.0
53743.0,STARLINK-4645,PAYLOAD,2023-12-19 04:37:03,15.0883246,0.0001273,53.2164,307.1638,94.4818,265.6319,-8.5521e-05,-1.648e-05,0.0,0 STARLINK-4645,1 53743U 22107AV  23353.19240183 -.00001648  00000-0 -85521-4 0  9994,2 53743  53.2164 307.1638 0001273  94.4818 265.6319 15.08832460 72086,6917.903,95.438,540.649,538.888,0.0
53743.0,STARLINK-4645,PAYLOAD,2023-12-20 04:27:50,15.0884881,0.0001764,53.2176,302.708,71.5678,288.5506,0.00069723,0.00010828,0.0,0 STARLINK-4645,1 53743U 22107AV  23354.18600472  .00010828  00000-0  69723-3 0  9998,2 53743  53.2176 302.7080 0001764  71.5678 288.5506 15.08848810 71454,6917.853,95.437,540.939,538.498,0.0
53743.0,STARLINK-4645,PAYLOAD,2023-12-21 02:43:14,15.08859792,0.0001557,53.2156,298.5451,82.3625,277.7544,0.00057468,8.875e-05,0.0,0 STARLINK-4645,1 53743U 22107AV  23355.11335802  .00008875  00000-0  57468-3 0  9996,2 53743  53.2156 298.5451 0001557  82.3625 277.7544 15.08859792 71596,6917.82,95.436,540.762,538.608,0.0
53743.0,STARLINK-4645,PAYLOAD,2023-12-22 02:34:01,15.08842124,0.0001519,53.2162,294.0828,103.8214,256.2947,0.00029387,4.392e-05,0.0,0 STARLINK-4645,1 53743U 22107AV  23356.10695963  .00004392  00000-0  29387-3 0  9992,2 53743  53.2162 294.0828 0001519 103.8214 256.2947 15.08842124 71740,6917.874,95.437,540.79,538.688,0.0
53743.0,STARLINK-4645,PAYLOAD,2023-12-23 02:24:48,15.08839424,0.0001714,53.2178,289.623,107.5111,252.6068,0.00030075,4.502e-05,0.0,0 STARLINK-4645,1 53743U 22107AV  23357.10056554  .00004502  00000-0  30075-3 0  9999,2 53743  53.2178 289.6230 0001714 107.5111 252.6068 15.08839424 71897,6917.882,95.438,540.933,538.561,0.0
53743.0,STARLINK-4645,PAYLOAD,2023-12-23 05:35:35,15.08836906,0.0001697,53.2172,289.0212,99.1731,260.9453,0.00047621,7.298e-05,0.0,0 STARLINK-4645,1 53743U 22107AV  23357.23304766  .00007298  00000-0  47621-3 0  9994,2 53743  53.2172 289.0212 0001697  99.1731 260.9453 15.08836906 72690,6917.89,95.438,540.929,538.581,0.0
53743.0,STARLINK-4645,PAYLOAD,2023-12-24 00:40:13,15.08835565,0.0001734,53.2173,285.4502,104.716,255.4025,0.00010258,1.345e-05,0.0,0 STARLINK-4645,1 53743U 22107AV  23358.02792932  .00001345  00000-0  10258-3 0  9991,2 53743  53.2173 285.4502 0001734 104.7160 255.4025 15.08835565 72036,6917.894,95.438,540.959,538.559,0.0
53743.0,STARLINK-4645,PAYLOAD,2023-12-24 05:26:22,15.08834488,0.0001773,53.2171,284.5587,104.5676,255.5513,0.00011637,1.564e-05,0.0,0 STARLINK-4645,1 53743U 22107AV  23358.22665093  .00001564  00000-0  11637-3 0  9995,2 53743  53.2171 284.5587 0001773 104.5676 255.5513 15.08834488 72845,6917.897,95.438,540.989,538.536,0.0
53743.0,STARLINK-4645,PAYLOAD,2023-12-25 00:30:59,15.08843431,0.0001529,53.2165,280.9904,105.1175,254.9986,9.0171e-05,1.148e-05,0.0,0 STARLINK-4645,1 53743U 22107AV  23359.02152754  .00001148  00000-0  90171-4 0  9998,2 53743  53.2165 280.9904 0001529 105.1175 254.9986 15.08843431 72969,6917.87,95.437,540.793,538.677,0.0
53743.0,STARLINK-4645,PAYLOAD,2023-12-26 03:32:34,15.08832072,0.0001362,53.2158,275.9379,84.9634,275.1514,-3.8318e-05,-8.98e-06,0.0,0 STARLINK-4645,1 53743U 22107AV  23360.14761780 -.00000898  00000-0 -38318-4 0  9996,2 53743  53.2158 275.9379 0001362  84.9634 275.1514 15.08832072 72354,6917.905,95.438,540.712,538.827,0.0
53743.0,STARLINK-4645,PAYLOAD,2023-12-26 22:37:11,15.0885005,0.0001038,53.2155,272.3687,81.1668,278.9441,3.2843e-05,2.35e-06,0.0,0 STARLINK-4645,1 53743U 22107AV  23360.94249130  .00000235  00000-0  32843-4 0  9994,2 53743  53.2155 272.3687 0001038  81.1668 278.9441 15.08850050 73256,6917.85,95.437,540.433,538.997,0.0
53743.0,STARLINK-4645,PAYLOAD,2023-12-27 03:23:20,15.08837161,0.0001354,53.2164,271.4809,93.8735,266.2411,0.0004405,6.729e-05,0.0,0 STARLINK-4645,1 53743U 22107AV  23361.14121038  .00006729  00000-0  44050-3 0  9999,2 53743  53.2164 271.4809 0001354  93.8735 266.2411 15.08837161 72500,6917.889,95.438,540.691,538.817,0.0
53743.0,STARLINK-4645,PAYLOAD,2023-12-27 20:52:35,15.08839974,0.0001114,53.2192,268.2041,107.0175,253.0939,6.6904e-05,7.77e-06,0.0,0 STARLINK-4645,1 53743U 22107AV  23361.86985409  .00000777  00000-0  66904-4 0  9998,2 53743  53.2192 268.2041 0001114 107.0175 253.0939 15.08839974 73394,6917.88,95.438,540.516,538.975,0.0
53743.0,STARLINK-4645,PAYLOAD,2023-12-28 03:14:07,15.08845495,0.0001164,53.218,267.0163,102.5794,257.5329,0.00014399,2.005e-05,0.0,0 STARLINK-4645,1 53743U 22107AV  23362.13481165  .00002005  00000-0  14399-3 0  9995,2 53743  53.2180 267.0163 0001164 102.5794 257.5329 15.08845495 72650,6917.864,95.437,540.534,538.923,0.0
53743.0,STARLINK-4645,PAYLOAD,2023-12-28 22:18:45,15.08843227,0.0001539,53.2176,263.4475,105.349,254.7673,-6.7655e-05,-1.365e-05,0.0,0 STARLINK-4645,1 53743U 22107AV  23362.92969327 -.00001365  00000-0 -67655-4 0  9997,2 53743  53.2176 263.4475 0001539 105.3490 254.7673 15.08843227 73553,6917.871,95.437,540.8,538.671,0.0
